STARLINK-1007           
1 44713U 19074A   24009.73350012  .00000710  00000+0  66541-4 0  9999
2 44713  53.0542 132.8701 0001322  85.4757 274.6383 15.06396732229688
STARLINK-1008           
1 44714U 19074B   24009.77867811 -.00000908  00000+0 -42092-4 0  9990
2 44714  53.0564 132.6702 0001459  85.3828 274.7327 15.06404217229699
STARLINK-1009           
1 44715U 19074C   24009.63492161  .00000429  00000+0  47672-4 0  9993
2 44715  53.0549 133.3165 0001137  96.4376 263.6742 15.06394991229660
STARLINK-1010           
1 44716U 19074D   24009.71969983  .00000412  00000+0  46535-4 0  9993
2 44716  53.0541 132.9347 0001328  84.8061 275.3080 15.06394291229662
STARLINK-1011           
1 44717U 19074E   24009.78420327  .00000536  00000+0  54854-4 0  9995
2 44717  53.0540 152.6420 0001483  93.0625 267.0534 15.06396681229413
STARLINK-1012           
1 44718U 19074F   24009.62386672 -.00000195  00000+0  58216-5 0  9992
2 44718  53.0546 133.3638 0001385  89.2067 270.9080 15.06393527229667
STARLINK-1013           
1 44719U 19074G   24009.56489059 -.00000444  00000+0 -10949-4 0  9997
2 44719  53.0531 133.6281 0001187  77.1324 282.9798 15.06395360230782
STARLINK-1014           
1 44720U 19074H   24009.78141476  .00000790  00000+0  71926-4 0  9995
2 44720  53.0541 132.6460 0000533 105.7701 254.3347 15.06393988229699
STARLINK-1015           
1 44721U 19074J   24009.77129384 -.00005454  00000+0 -34753-3 0  9999
2 44721  53.0534 132.7032 0001272  88.0286 272.0849 15.06396882229689
STARLINK-1017           
1 44723U 19074L   24009.72338322  .00000910  00000+0  79990-4 0  9993
2 44723  53.0549 132.9185 0001238  80.4599 279.6530 15.06396657229683
STARLINK-1019           
1 44724U 19074M   24009.62018046 -.00000364  00000+0 -55706-5 0  9996
2 44724  53.0550 133.3816 0001293  92.2212 267.8925 15.06396872229660
STARLINK-1020           
1 44725U 19074N   24009.62570896  .00000243  00000+0  35193-4 0  9994
2 44725  53.0546 153.3565 0001280  86.1915 273.9221 15.06395166229388
STARLINK-1021           
1 44726U 19074P   24009.55014892 -.00000330  00000+0 -32472-5 0  9993
2 44726  53.0540 133.6940 0001238  81.4608 278.6521 15.06396592229650
STARLINK-1024           
1 44729U 19074S   24009.99025495  .00067981  00000+0  65282-3 0  9991
2 44729  53.0130  17.9235 0005972  93.0778 267.0920 15.65979214231432
STARLINK-1027           
1 44732U 19074V   24009.81369434  .00000825  00000+0  74255-4 0  9995
2 44732  53.0553 152.5199 0001312  74.4257 285.6877 15.06393975229410
STARLINK-1028           
1 44733U 19074W   24009.61281793 -.00001743  00000+0 -98173-4 0  9992
2 44733  53.0551 133.4085 0001142  82.5147 277.5972 15.06382511229836
STARLINK-1029           
1 44734U 19074X   24009.49486192  .00000070  00000+0  23573-4 0  9991
2 44734  53.0538  53.9375 0001506 101.7241 258.3917 15.06394015230912
STARLINK-1030           
1 44735U 19074Y   24009.62201889 -.00000899  00000+0 -41451-4 0  9991
2 44735  53.0554 153.3716 0001475  99.5424 260.5732 15.06392371229558
STARLINK-1031           
1 44736U 19074Z   24009.76946046  .00000789  00000+0  71862-4 0  9993
2 44736  53.0547 152.7066 0001269  76.7486 283.3645 15.06393873229417
STARLINK-1032           
1 44737U 19074AA  24009.78051619  .00000860  00000+0  76630-4 0  9997
2 44737  53.0542 152.6594 0001142  77.4929 282.6188 15.06396391229410
STARLINK-1035           
1 44740U 19074AD  24009.77683295  .00000675  00000+0  64222-4 0  9999
2 44740  53.0544 152.6799 0001162  86.5975 273.5147 15.06398789229414
STARLINK-1036           
1 44741U 19074AE  24009.65519462  .00001034  00000+0  88319-4 0  9994
2 44741  53.0540 153.2225 0001214  84.5261 275.5866 15.06397079229394
STARLINK-1038           
1 44743U 19074AG  24009.77132413  .00000083  00000+0  24469-4 0  9995
2 44743  53.0538 172.6987 0001159  84.5130 275.5991 15.06384330229223
STARLINK-1039           
1 44744U 19074AH  24009.71601661  .00000504  00000+0  52749-4 0  9996
2 44744  53.0544 172.9467 0001446  89.3871 270.7283 15.06397714229121
STARLINK-1041           
1 44746U 19074AK  24009.83396454  .00001044  00000+0  88970-4 0  9997
2 44746  53.0546 172.4184 0001278  85.3925 274.7210 15.06400470229314
STARLINK-1042           
1 44747U 19074AL  24009.86093577  .00005383  00000+0  37713-3 0  9999
2 44747  53.0523 172.2704 0001232 107.2239 252.8885 15.06686478229159
STARLINK-1043           
1 44748U 19074AM  24009.76024635  .00001263  00000+0  10369-3 0  9999
2 44748  53.0537 172.7508 0001293  86.2128 273.9009 15.06397901229132
STARLINK-1046           
1 44751U 19074AQ  24009.70864352  .00000280  00000+0  37702-4 0  9994
2 44751  53.0536 172.9799 0001264  96.0257 264.0876 15.06395252229128
STARLINK-1047           
1 44752U 19074AR  24009.79525880  .00001188  00000+0  98654-4 0  9995
2 44752  53.0536 152.5929 0001215  85.7499 274.3629 15.06398978229417
STARLINK-1048           
1 44753U 19074AS  24009.73444027  .00000931  00000+0  81401-4 0  9990
2 44753  53.0543 132.8656 0001186  90.3109 269.8016 15.06396604229683
STARLINK-1052           
1 44757U 19074AW  24009.82009545  .00024119  00000+0  13609-2 0  9993
2 44757  53.0545 149.1614 0002639 106.4141 253.7141 15.13046382229463
STARLINK-1053           
1 44758U 19074AX  24009.88926701  .00000957  00000+0  83107-4 0  9998
2 44758  53.0542 172.2571 0001241  92.4827 267.6304 15.06394790229155
STARLINK-1054           
1 44759U 19074AY  24009.67178325  .00000073  00000+0  23822-4 0  9994
2 44759  53.0528 173.1438 0001367  85.2440 274.8705 15.06395411226762
STARLINK-1055           
1 44760U 19074AZ  24009.68567387  .00010312  00000+0  44501-3 0  9990
2 44760  53.0212 146.0227 0004004 110.0920 250.0507 15.23095719229519
STARLINK-1056           
1 44761U 19074BA  24009.86713958  .00000098  00000+0  25445-4 0  9995
2 44761  53.0537 172.2711 0001473  89.6578 270.4579 15.06398395229158
STARLINK-1057           
1 44762U 19074BB  24009.80263203  .00000396  00000+0  45471-4 0  9995
2 44762  53.0540 152.5600 0001298  84.8854 275.2283 15.06396261229414
STARLINK-1058           
1 44763U 19074BC  24009.72342358  .00000281  00000+0  37766-4 0  9997
2 44763  53.0531 173.2614 0001433  87.7711 272.3442 15.06399343229122
STARLINK-1059           
1 44764U 19074BD  24009.53976364  .00013222  00000+0  49825-3 0  9994
2 44764  53.0817 110.4570 0005786  59.3227 300.8341 15.27400952230002
STARLINK-1060           
1 44765U 19074BE  24009.68468275 -.00000122  00000+0  10706-4 0  9991
2 44765  53.0546 153.0882 0001438  87.6734 272.4419 15.06400423229398
STARLINK-1061           
1 44766U 19074BF  24009.68284389  .00000376  00000+0  44120-4 0  9991
2 44766  53.0538 173.0948 0001336  93.1544 266.9598 15.06393680229126
STARLINK-1062           
1 44767U 19074BG  24009.87356404 -.00000518  00000+0 -15879-4 0  9990
2 44767  53.0568 172.2255 0001399  99.4128 260.7019 15.06400918229154
STARLINK-1063           
1 44768U 19074BH  24009.83028028  .00000627  00000+0  61016-4 0  9998
2 44768  53.0542 172.4361 0001296  93.0785 267.0352 15.06397775229158
STARLINK-1067           
1 44771U 19074BL  24009.88557513  .00000529  00000+0  54395-4 0  9996
2 44771  53.0535 172.1889 0001365  91.7692 268.3454 15.06391094229150
STARLINK-1068           
1 44772U 19074BM  24009.81000613  .00000562  00000+0  56620-4 0  9994
2 44772  53.0540 152.5285 0001288  78.8693 281.2441 15.06398717229418
STARLINK-1073           
1 44914U 20001A   24010.15833081 -.00000422  00000+0 -94248-5 0  9992
2 44914  53.0542 290.9654 0001280  89.8051 270.3085 15.06393062220846
STARLINK-1084           
1 44915U 20001B   24010.18781136 -.00001931  00000+0 -11075-3 0  9990
2 44915  53.0555 290.8293 0001683  94.0006 266.1175 15.06400810220858
STARLINK-1098           
1 44917U 20001D   24010.05881096  .00001627  00000+0  12809-3 0  9990
2 44917  53.0553 291.4094 0001538 103.1018 257.0143 15.06399209220839
STARLINK-1099           
1 44918U 20001E   24009.99338115  .00034043  00000+0  60332-3 0  9993
2 44918  53.0564 273.2714 0001831  72.1788 287.9419 15.49967170221827
STARLINK-1102           
1 44920U 20001G   24009.95456402  .00012168  00000+0  47341-3 0  9991
2 44920  53.0523 256.9947 0002674 156.3819 203.7301 15.26423558221319
STARLINK-1103           
1 44921U 20001H   24009.90305468  .00007463  00000+0  51935-3 0  9998
2 44921  53.0551 292.0657 0001619  84.3479 275.7694 15.06401295220786
STARLINK-1104           
1 44922U 20001J   24010.13989797  .00000462  00000+0  49948-4 0  9993
2 44922  53.0558 291.0473 0001371  95.8090 264.3056 15.06389604220842
STARLINK-1106           
1 44923U 20001K   24009.95543919  .00007701  00000+0  34462-3 0  9991
2 44923  53.0419 268.0611 0002305  75.4230 284.7021 15.22226977221159
STARLINK-1111           
1 44924U 20001L   24010.15464633  .00001704  00000+0  13330-3 0  9999
2 44924  53.0544 291.0000 0001444 100.3956 259.7196 15.06387482220844
STARLINK-1112           
1 44925U 20001M   24009.77130415  .00001601  00000+0  12634-3 0  9996
2 44925  53.0538 292.7030 0001434  92.1113 268.0040 15.06398989220789
STARLINK-1113           
1 44926U 20001N   24010.16571199  .00000132  00000+0  27779-4 0  9995
2 44926  53.0549 291.0174 0001448 101.9596 258.1555 15.06392338221539
STARLINK-1114           
1 44927U 20001P   24010.18044340 -.00001038  00000+0 -50782-4 0  9999
2 44927  53.0575 290.8607 0001989 128.9093 231.2073 15.06393331220853
STARLINK-1119           
1 44928U 20001Q   24009.91942625  .00001041  00000+0  15735-4 0  9993
2 44928  53.0538 273.7607 0001255  76.6635 283.4520 15.65310452221079
STARLINK-1121           
1 44929U 20001R   24010.06049767  .00045913  00000+0  34446-3 0  9992
2 44929  53.0534 258.8794 0001805 156.8400 203.2700 15.72167382221282
STARLINK-1123           
1 44930U 20001S   24010.06249867 -.00000394  00000+0 -75800-5 0  9994
2 44930  53.0551 291.3951 0001583  95.6493 264.4676 15.06391450220838
STARLINK-1128           
